{
  "type": "FeatureCollection",
  "features": [
    {
      "type": "Feature",
      "properties": {
        "norad_id": 31307,
        "name": "GALAXY 17 (G-17)",
        "group": "intelsat",
        "lat": 0.22545155481773152,
        "lon": -103.53474761980313,
        "alt_km": 35763.138798260894,
        "timestamp": "2025-12-20T16:47:35.958699+00:00",
        "meta_object_name": "GALAXY 17 (G-17)",
        "meta_object_id": "2007-016B",
        "meta_epoch": "2025-12-20T11:24:08.214048",
        "meta_mean_motion": 1.0027177,
        "meta_eccentricity": 0.000543,
        "meta_inclination": 2.5181,
        "meta_ra_of_asc_node": 82.2,
        "meta_arg_of_pericenter": 169.9015,
        "meta_mean_anomaly": 283.2719,
        "meta_ephemeris_type": 0,
        "meta_classification_type": "U",
        "meta_norad_cat_id": 31307,
        "meta_element_set_no": 999,
        "meta_rev_at_epoch": 6801,
        "meta_bstar": 0,
        "meta_mean_motion_dot": -1.85e-06,
        "meta_mean_motion_ddot": 0,
        "tle_line1": "1 31307U 07016B   25354.47509507 -.00000185  00000+0  00000+0 0  9997",
        "tle_line2": "2 31307   2.5181  82.2000 0005430 169.9015 283.2719  1.00271770 68010"
      },
      "geometry": {
        "type": "Point",
        "coordinates": [
          -103.53474761980313,
          0.22545155481773152
        ]
      }
    },
    {
      "type": "Feature",
      "properties": {
        "norad_id": 31862,
        "name": "DIRECTV 10",
        "group": "intelsat",
        "lat": -0.0009781631193939086,
        "lon": -121.37987376552904,
        "alt_km": 35785.05455930578,
        "timestamp": "2025-12-20T16:47:35.958711+00:00",
        "meta_object_name": "DIRECTV 10",
        "meta_object_id": "2007-032A",
        "meta_epoch": "2025-12-20T10:17:47.329728",
        "meta_mean_motion": 1.00272197,
        "meta_eccentricity": 2.27e-05,
        "meta_inclination": 0.0081,
        "meta_ra_of_asc_node": 103.0199,
        "meta_arg_of_pericenter": 118.7646,
        "meta_mean_anomaly": 279.1244,
        "meta_ephemeris_type": 0,
        "meta_classification_type": "U",
        "meta_norad_cat_id": 31862,
        "meta_element_set_no": 999,
        "meta_rev_at_epoch": 4380,
        "meta_bstar": 0,
        "meta_mean_motion_dot": -7.9e-07,
        "meta_mean_motion_ddot": 0,
        "tle_line1": "1 31862U 07032A   25354.42902002 -.00000079  00000+0  00000+0 0  9995",
        "tle_line2": "2 31862   0.0081 103.0199 0000227 118.7646 279.1244  1.00272197 43801"
      },
      "geometry": {
        "type": "Point",
        "coordinates": [
          -121.37987376552904,
          -0.0009781631193939086
        ]
      }
    },
    {
      "type": "Feature",
      "properties": {
        "norad_id": 32253,
        "name": "INTELSAT 11 (IS-11)",
        "group": "intelsat",
        "lat": 3.10461733142745,
        "lon": 172.0087481383504,
        "alt_km": 36123.42582214173,
        "timestamp": "2025-12-20T16:47:35.958722+00:00",
        "meta_object_name": "INTELSAT 11 (IS-11)",
        "meta_object_id": "2007-044B",
        "meta_epoch": "2025-12-20T08:37:38.767872",
        "meta_mean_motion": 0.99052252,
        "meta_eccentricity": 0.0008535,
        "meta_inclination": 3.0988,
        "meta_ra_of_asc_node": 80.8927,
        "meta_arg_of_pericenter": 168.917,
        "meta_mean_anomaly": 160.9677,
        "meta_ephemeris_type": 0,
        "meta_classification_type": "U",
        "meta_norad_cat_id": 32253,
        "meta_element_set_no": 999,
        "meta_rev_at_epoch": 6667,
        "meta_bstar": 0,
        "meta_mean_motion_dot": -5.8e-07,
        "meta_mean_motion_ddot": 0,
        "tle_line1": "1 32253U 07044B   25354.35947648 -.00000058  00000+0  00000+0 0  9997",
        "tle_line2": "2 32253   3.0988  80.8927 0008535 168.9170 160.9677  0.99052252 66677"
      },
      "geometry": {
        "type": "Point",
        "coordinates": [
          172.0087481383504,
          3.10461733142745
        ]
      }
    },
    {
      "type": "Feature",
      "properties": {
        "norad_id": 32388,
        "name": "HORIZONS-2",
        "group": "intelsat",
        "lat": -0.20482238244597675,
        "lon": -92.37037181265165,
        "alt_km": 35766.94687444143,
        "timestamp": "2025-12-20T16:47:35.958733+00:00",
        "meta_object_name": "HORIZONS-2",
        "meta_object_id": "2007-063B",
        "meta_epoch": "2025-12-20T10:32:03.958944",
        "meta_mean_motion": 1.00271723,
        "meta_eccentricity": 0.0004587,
        "meta_inclination": 2.1405,
        "meta_ra_of_asc_node": 82.879,
        "meta_arg_of_pericenter": 193.7157,
        "meta_mean_anomaly": 256.9119,
        "meta_ephemeris_type": 0,
        "meta_classification_type": "U",
        "meta_norad_cat_id": 32388,
        "meta_element_set_no": 999,
        "meta_rev_at_epoch": 6602,
        "meta_bstar": 0,
        "meta_mean_motion_dot": -2.31e-06,
        "meta_mean_motion_ddot": 0,
        "tle_line1": "1 32388U 07063B   25354.43893471 -.00000231  00000+0  00000+0 0  9993",
        "tle_line2": "2 32388   2.1405  82.8790 0004587 193.7157 256.9119  1.00271723 66029"
      },
      "geometry": {
        "type": "Point",
        "coordinates": [
          -92.37037181265165,
          -0.20482238244597675
        ]
      }
    },
    {
      "type": "Feature",
      "properties": {
        "norad_id": 32729,
        "name": "DIRECTV 11",
        "group": "intelsat",
        "lat": -0.018994806670410595,
        "lon": -117.75065014294728,
        "alt_km": 35780.359448503514,
        "timestamp": "2025-12-20T16:47:35.958745+00:00",
        "meta_object_name": "DIRECTV 11",
        "meta_object_id": "2008-013A",
        "meta_epoch": "2025-12-20T12:09:57.854304",
        "meta_mean_motion": 1.00281934,
        "meta_eccentricity": 6.96e-05,
        "meta_inclination": 0.0453,
        "meta_ra_of_asc_node": 198.5655,
        "meta_arg_of_pericenter": 32.627,
        "meta_mean_anomaly": 301.4589,
        "meta_ephemeris_type": 0,
        "meta_classification_type": "U",
        "meta_norad_cat_id": 32729,
        "meta_element_set_no": 999,
        "meta_rev_at_epoch": 4380,
        "meta_bstar": 0,
        "meta_mean_motion_dot": -1.03e-06,
        "meta_mean_motion_ddot": 0,
        "tle_line1": "1 32729U 08013A   25354.50691961 -.00000103  00000+0  00000+0 0  9994",
        "tle_line2": "2 32729   0.0453 198.5655 0000696  32.6270 301.4589  1.00281934 43800"
      },
      "geometry": {
        "type": "Point",
        "coordinates": [
          -117.75065014294728,
          -0.018994806670410595
        ]
      }
    },
    {
      "type": "Feature",
      "properties": {
        "norad_id": 32951,
        "name": "GALAXY 18 (G-18)",
        "group": "intelsat",
        "lat": -0.005664538861481315,
        "lon": -141.6167180510767,
        "alt_km": 35779.51183453141,
        "timestamp": "2025-12-20T16:47:35.958757+00:00",
        "meta_object_name": "GALAXY 18 (G-18)",
        "meta_object_id": "2008-024A",
        "meta_epoch": "2025-12-20T10:15:38.712096",
        "meta_mean_motion": 1.00271052,
        "meta_eccentricity": 0.0002828,
        "meta_inclination": 0.0144,
        "meta_ra_of_asc_node": 55.5326,
        "meta_arg_of_pericenter": 218.577,
        "meta_mean_anomaly": 206.0538,
        "meta_ephemeris_type": 0,
        "meta_classification_type": "U",
        "meta_norad_cat_id": 32951,
        "meta_element_set_no": 999,
        "meta_rev_at_epoch": 4406,
        "meta_bstar": 0,
        "meta_mean_motion_dot": 4.9e-07,
        "meta_mean_motion_ddot": 0,
        "tle_line1": "1 32951U 08024A   25354.42753139  .00000049  00000+0  00000+0 0  9998",
        "tle_line2": "2 32951   0.0144  55.5326 0002828 218.5770 206.0538  1.00271052 44063"
      },
      "geometry": {
        "type": "Point",
        "coordinates": [
          -141.6167180510767,
          -0.005664538861481315
        ]
      }
    },
    {
      "type": "Feature",
      "properties": {
        "norad_id": 33153,
        "name": "INTELSAT 25 (IS-25)",
        "group": "intelsat",
        "lat": -1.6747888523415262,
        "lon": -50.07513160208,
        "alt_km": 35771.193528799464,
        "timestamp": "2025-12-20T16:47:35.958788+00:00",
        "meta_object_name": "INTELSAT 25 (IS-25)",
        "meta_object_id": "2008-034A",
        "meta_epoch": "2025-12-20T06:13:56.324352",
        "meta_mean_motion": 1.0027013,
        "meta_eccentricity": 0.0004802,
        "meta_inclination": 2.2459,
        "meta_ra_of_asc_node": 82.5699,
        "meta_arg_of_pericenter": 187.4291,
        "meta_mean_anomaly": 241.0715,
        "meta_ephemeris_type": 0,
        "meta_classification_type": "U",
        "meta_norad_cat_id": 33153,
        "meta_element_set_no": 999,
        "meta_rev_at_epoch": 6390,
        "meta_bstar": 0,
        "meta_mean_motion_dot": -2.02e-06,
        "meta_mean_motion_ddot": 0,
        "tle_line1": "1 33153U 08034A   25354.25967968 -.00000202  00000+0  00000+0 0  9994",
        "tle_line2": "2 33153   2.2459  82.5699 0004802 187.4291 241.0715  1.00270130 63906"
      },
      "geometry": {
        "type": "Point",
        "coordinates": [
          -50.07513160208,
          -1.6747888523415262
        ]
      }
    }
  ]
}